{
    "CCSDS_OMM_VERS": "3.0",
    "COMMENT": "GENERATED VIA SPACE-TRACK.ORG API",
    "CREATION_DATE": "2025-11-22T18:56:57",
    "ORIGINATOR": "18 SPCS",
    "OBJECT_NAME": "GALILEO 19 (2C5)",
    "OBJECT_ID": "2017-079A",
    "CENTER_NAME": "EARTH",
    "REF_FRAME": "TEME",
    "TIME_SYSTEM": "UTC",
    "MEAN_ELEMENT_THEORY": "SGP4",
    "EPOCH": "2025-11-21T08:46:32.448576",
    "MEAN_MOTION": "1.70473865",
    "ECCENTRICITY": "0.00015605",
    "INCLINATION": "55.1379",
    "RA_OF_ASC_NODE": "227.2264",
    "ARG_OF_PERICENTER": "313.3276",
    "MEAN_ANOMALY": "46.7355",
    "EPHEMERIS_TYPE": "0",
    "CLASSIFICATION_TYPE": "U",
    "NORAD_CAT_ID": "43055",
    "ELEMENT_SET_NO": "999",
    "REV_AT_EPOCH": "4944",
    "BSTAR": "0.00000000000000",
    "MEAN_MOTION_DOT": "0.00000021",
    "MEAN_MOTION_DDOT": "0.0000000000000",
    "SEMIMAJOR_AXIS": "29600.336",
    "PERIOD": "844.704",
    "APOAPSIS": "23226.820",
    "PERIAPSIS": "23217.582",
    "OBJECT_TYPE": "PAYLOAD",
    "RCS_SIZE": "LARGE",
    "COUNTRY_CODE": "ESA",
    "LAUNCH_DATE": "2017-12-12",
    "SITE": "FRGUI",
    "DECAY_DATE": null,
    "FILE": "4894246",
    "GP_ID": "303253454",
    "TLE_LINE0": "0 GALILEO 19 (2C5)",
    "TLE_LINE1": "1 43055U 17079A   25325.36565334  .00000021  00000-0  00000-0 0  9996",
    "TLE_LINE2": "2 43055  55.1379 227.2264 0001560 313.3276  46.7355  1.70473865 49443"
}